ADRAS-J                 
1 58992U 24034A   24126.57540847  .00003673  00000+0  34826-3 0  9995
2 58992  98.2091  97.6885 0044211 187.0511 173.0091 14.93520824 11508
